[{"OBJECT_NAME":"STARLINK-2564","OBJECT_ID":"2021-036J","EPOCH":"2026-03-09T09:42:02.625984","MEAN_MOTION":15.30187265,"ECCENTRICITY":0.00015457,"INCLINATION":53.1593,"RA_OF_ASC_NODE":77.1004,"ARG_OF_PERICENTER":91.2892,"MEAN_ANOMALY":268.8285,"EPHEMERIS_TYPE":0,"CLASSIFICATION_TYPE":"U","NORAD_CAT_ID":48284,"ELEMENT_SET_NO":999,"REV_AT_EPOCH":26835,"BSTAR":-7.3525621e-5,"MEAN_MOTION_DOT":-2.535e-5,"MEAN_MOTION_DDOT":0},{"OBJECT_NAME":"TOMORROW-S4","OBJECT_ID":"2024-247K","EPOCH":"2026-03-09T12:47:35.836224","MEAN_MOTION":15.27717249,"ECCENTRICITY":0.00044343,"INCLINATION":44.9818,"RA_OF_ASC_NODE":117.9996,"ARG_OF_PERICENTER":210.4078,"MEAN_ANOMALY":149.6548,"EPHEMERIS_TYPE":0,"CLASSIFICATION_TYPE":"U","NORAD_CAT_ID":62386,"ELEMENT_SET_NO":999,"REV_AT_EPOCH":6770,"BSTAR":0.00046927249,"MEAN_MOTION_DOT":0.00012677,"MEAN_MOTION_DDOT":0}]
